start=new Date('2021-09-12T00:00:00.000Z').valueOf();
sats=[{"OBJECT_TYPE":"PAYLOAD","MEAN_ELEMENT_THEORY":"SGP4","PERIAPSIS":"546.149","TLE_LINE2":"2 47594  53.0555 205.6776 0001554  71.3028 288.8129 15.06396047 33266","RA_OF_ASC_NODE":"205.6776","RCS_SIZE":"LARGE","COUNTRY_CODE":"US","DECAY_DATE":null,"INCLINATION":"53.0555","EPHEMERIS_TYPE":"0","BSTAR":"0.00000949650000","FILE":"3113181","ECCENTRICITY":"0.00015540","TLE_LINE1":"1 47594U 21009AY  21254.28549874 -.00000140  00000-0  94965-5 0  9996","SEMIMAJOR_AXIS":"6925.361","LAUNCH_DATE":"2021-02-04","OBJECT_ID":"2021-009AY","MEAN_MOTION_DOT":"-0.00000140","SITE":"AFETR","APOAPSIS":"548.302","MEAN_MOTION":"15.06396047","EPOCH":"2021-09-11T06:51:07.091136","NORAD_CAT_ID":"47594","REF_FRAME":"TEME","CENTER_NAME":"EARTH","CLASSIFICATION_TYPE":"U","PERIOD":"95.592","ELEMENT_SET_NO":"999","REV_AT_EPOCH":"3326","ARG_OF_PERICENTER":"71.3028","OBJECT_NAME":"STARLINK-1999","GP_ID":"184508269","MEAN_MOTION_DDOT":"0.0000000000000","TIME_SYSTEM":"UTC","MEAN_ANOMALY":"288.8129"},{"SITE":"AFETR","APOAPSIS":"548.306","MEAN_MOTION":"15.06403390","EPOCH":"2021-09-11T06:29:52.329984","NORAD_CAT_ID":"47595","REF_FRAME":"TEME","CENTER_NAME":"EARTH","CLASSIFICATION_TYPE":"U","PERIOD":"95.592","ELEMENT_SET_NO":"999","REV_AT_EPOCH":"3326","ARG_OF_PERICENTER":"58.2100","OBJECT_NAME":"STARLINK-2000","MEAN_MOTION_DDOT":"0.0000000000000","GP_ID":"184508517","TIME_SYSTEM":"UTC","MEAN_ANOMALY":"301.9044","OBJECT_TYPE":"PAYLOAD","MEAN_ELEMENT_THEORY":"SGP4","PERIAPSIS":"546.100","TLE_LINE2":"2 47595  53.0563 205.7461 0001593  58.2100 301.9044 15.06403390 33269","RA_OF_ASC_NODE":"205.7461","RCS_SIZE":"LARGE","COUNTRY_CODE":"US","DECAY_DATE":null,"INCLINATION":"53.0563","EPHEMERIS_TYPE":"0","BSTAR":"0.00010532000000","FILE":"3113181","ECCENTRICITY":"0.00015930","TLE_LINE1":"1 47595U 21009AZ  21254.27074456  .00001288  00000-0  10532-3 0  9994","SEMIMAJOR_AXIS":"6925.338","OBJECT_ID":"2021-009AZ","LAUNCH_DATE":"2021-02-04","MEAN_MOTION_DOT":"0.00001288"},{"NORAD_CAT_ID":"47596","EPOCH":"2021-09-11T08:10:43.261536","MEAN_MOTION":"15.06408601","SITE":"AFETR","APOAPSIS":"548.606","REF_FRAME":"TEME","CENTER_NAME":"EARTH","PERIOD":"95.592","CLASSIFICATION_TYPE":"U","ELEMENT_SET_NO":"999","OBJECT_NAME":"STARLINK-2001","ARG_OF_PERICENTER":"70.0554","REV_AT_EPOCH":"3327","MEAN_ANOMALY":"290.0655","GP_ID":"184506770","TIME_SYSTEM":"UTC","MEAN_MOTION_DDOT":"0.0000000000000","MEAN_ELEMENT_THEORY":"SGP4","OBJECT_TYPE":"PAYLOAD","PERIAPSIS":"545.769","TLE_LINE2":"2 47596  53.0551 205.4298 0002048  70.0554 290.0655 15.06408601 33270","RCS_SIZE":"LARGE","RA_OF_ASC_NODE":"205.4298","BSTAR":"-0.00001062900000","INCLINATION":"53.0551","EPHEMERIS_TYPE":"0","DECAY_DATE":null,"COUNTRY_CODE":"US","TLE_LINE1":"1 47596U 21009BA  21254.34077849 -.00000440  00000-0 -10629-4 0  9991","ECCENTRICITY":"0.00020480","SEMIMAJOR_AXIS":"6925.322","FILE":"3113181","MEAN_MOTION_DOT":"-0.00000440","LAUNCH_DATE":"2021-02-04","OBJECT_ID":"2021-009BA"},{"PERIOD":"95.592","CLASSIFICATION_TYPE":"U","ELEMENT_SET_NO":"999","REV_AT_EPOCH":"3326","OBJECT_NAME":"STARLINK-2002","ARG_OF_PERICENTER":"52.6459","MEAN_ANOMALY":"307.4696","TIME_SYSTEM":"UTC","GP_ID":"184507020","MEAN_MOTION_DDOT":"0.0000000000000","SITE":"AFETR","APOAPSIS":"548.481","NORAD_CAT_ID":"47597","MEAN_MOTION":"15.06398101","EPOCH":"2021-09-11T06:24:34.447104","REF_FRAME":"TEME","CENTER_NAME":"EARTH","FILE":"3113181","ECCENTRICITY":"0.00018220","TLE_LINE1":"1 47597U 21009BB  21254.26706536 -.00000080  00000-0  13521-4 0  9998","SEMIMAJOR_AXIS":"6925.354","OBJECT_ID":"2021-009BB","LAUNCH_DATE":"2021-02-04","MEAN_MOTION_DOT":"-0.00000080","MEAN_ELEMENT_THEORY":"SGP4","OBJECT_TYPE":"PAYLOAD","TLE_LINE2":"2 47597  53.0551 205.7634 0001822  52.6459 307.4696 15.06398101 33267","PERIAPSIS":"545.958","RA_OF_ASC_NODE":"205.7634","RCS_SIZE":"LARGE","COUNTRY_CODE":"US","DECAY_DATE":null,"BSTAR":"0.00001352100000","EPHEMERIS_TYPE":"0","INCLINATION":"53.0551"},{"BSTAR":"-0.00018245000000","EPHEMERIS_TYPE":"0","INCLINATION":"53.0731","DECAY_DATE":null,"COUNTRY_CODE":"US","RCS_SIZE":"LARGE","RA_OF_ASC_NODE":"174.1417","TLE_LINE2":"2 47598  53.0731 174.1417 0002000  56.0642 304.0537 15.06414474 33749","PERIAPSIS":"545.784","MEAN_ELEMENT_THEORY":"SGP4","OBJECT_TYPE":"PAYLOAD","MEAN_MOTION_DOT":"-0.00002999","LAUNCH_DATE":"2021-02-04","OBJECT_ID":"2021-009BC","ECCENTRICITY":"0.00020000","TLE_LINE1":"1 47598U 21009BC  21254.60893865 -.00002999  00000-0 -18245-3 0  9998","SEMIMAJOR_AXIS":"6925.304","FILE":"3113379","CENTER_NAME":"EARTH","REF_FRAME":"TEME","NORAD_CAT_ID":"47598","EPOCH":"2021-09-11T14:36:52.299360","MEAN_MOTION":"15.06414474","SITE":"AFETR","APOAPSIS":"548.554","MEAN_ANOMALY":"304.0537","GP_ID":"184535378","MEAN_MOTION_DDOT":"0.0000000000000","TIME_SYSTEM":"UTC","OBJECT_NAME":"STARLINK-2003","ARG_OF_PERICENTER":"56.0642","REV_AT_EPOCH":"3374","ELEMENT_SET_NO":"999","PERIOD":"95.591","CLASSIFICATION_TYPE":"U"},{"ECCENTRICITY":"0.00020310","TLE_LINE1":"1 47599U 21009BD  21254.26706648  .00000106  00000-0  26023-4 0  9993","SEMIMAJOR_AXIS":"6925.362","FILE":"3113181","MEAN_MOTION_DOT":"0.00000106","OBJECT_ID":"2021-009BD","LAUNCH_DATE":"2021-02-04","OBJECT_TYPE":"PAYLOAD","MEAN_ELEMENT_THEORY":"SGP4","TLE_LINE2":"2 47599  53.0561 165.7486 0002031  60.1368 299.9822 15.06395617 33823","PERIAPSIS":"545.820","RCS_SIZE":"LARGE","RA_OF_ASC_NODE":"165.7486","BSTAR":"0.00002602300000","INCLINATION":"53.0561","EPHEMERIS_TYPE":"0","COUNTRY_CODE":"US","DECAY_DATE":null,"PERIOD":"95.592","CLASSIFICATION_TYPE":"U","ELEMENT_SET_NO":"999","OBJECT_NAME":"STARLINK-2004","ARG_OF_PERICENTER":"60.1368","REV_AT_EPOCH":"3382","MEAN_ANOMALY":"299.9822","TIME_SYSTEM":"UTC","GP_ID":"184508017","MEAN_MOTION_DDOT":"0.0000000000000","NORAD_CAT_ID":"47599","EPOCH":"2021-09-11T06:24:34.543872","MEAN_MOTION":"15.06395617","SITE":"AFETR","APOAPSIS":"548.634","REF_FRAME":"TEME","CENTER_NAME":"EARTH"},{"FILE":"3113379","ECCENTRICITY":"0.00106110","TLE_LINE1":"1 47600U 21009BE  21254.76005138  .00001084  00000-0  91794-4 0  9990","SEMIMAJOR_AXIS":"6925.348","LAUNCH_DATE":"2021-02-04","OBJECT_ID":"2021-009BE","MEAN_MOTION_DOT":"0.00001084","PERIAPSIS":"539.865","TLE_LINE2":"2 47600  53.0666 163.4995 0010611  66.0505 294.1594 15.06400123 33904","OBJECT_TYPE":"PAYLOAD","MEAN_ELEMENT_THEORY":"SGP4","DECAY_DATE":null,"COUNTRY_CODE":"US","BSTAR":"0.00009179400000","INCLINATION":"53.0666","EPHEMERIS_TYPE":"0","RA_OF_ASC_NODE":"163.4995","RCS_SIZE":"LARGE","ELEMENT_SET_NO":"999","PERIOD":"95.592","CLASSIFICATION_TYPE":"U","MEAN_ANOMALY":"294.1594","GP_ID":"184534876","TIME_SYSTEM":"UTC","MEAN_MOTION_DDOT":"0.0000000000000","REV_AT_EPOCH":"3390","OBJECT_NAME":"STARLINK-2005","ARG_OF_PERICENTER":"66.0505","REF_FRAME":"TEME","SITE":"AFETR","APOAPSIS":"554.562","NORAD_CAT_ID":"47600","MEAN_MOTION":"15.06400123","EPOCH":"2021-09-11T18:14:28.439232","CENTER_NAME":"EARTH"},{"COUNTRY_CODE":"US","DECAY_DATE":null,"EPHEMERIS_TYPE":"0","INCLINATION":"53.0559","BSTAR":"0.00012338000000","RA_OF_ASC_NODE":"163.6473","RCS_SIZE":"LARGE","PERIAPSIS":"545.831","TLE_LINE2":"2 47601  53.0559 163.6473 0001984  61.2557 298.8631 15.06402846 33891","MEAN_ELEMENT_THEORY":"SGP4","OBJECT_TYPE":"PAYLOAD","LAUNCH_DATE":"2021-02-04","OBJECT_ID":"2021-009BF","MEAN_MOTION_DOT":"0.00001557","FILE":"3113379","SEMIMAJOR_AXIS":"6925.340","TLE_LINE1":"1 47601U 21009BF  21254.73517441  .00001557  00000-0  12338-3 0  9994","ECCENTRICITY":"0.00019840","CENTER_NAME":"EARTH","REF_FRAME":"TEME","APOAPSIS":"548.579","SITE":"AFETR","MEAN_MOTION":"15.06402846","EPOCH":"2021-09-11T17:38:39.069024","NORAD_CAT_ID":"47601","TIME_SYSTEM":"UTC","GP_ID":"184535128","MEAN_MOTION_DDOT":"0.0000000000000","MEAN_ANOMALY":"298.8631","REV_AT_EPOCH":"3389","ARG_OF_PERICENTER":"61.2557","OBJECT_NAME":"STARLINK-2006","ELEMENT_SET_NO":"999","CLASSIFICATION_TYPE":"U","PERIOD":"95.592"},{"REF_FRAME":"TEME","EPOCH":"2021-09-11T13:22:33.744000","MEAN_MOTION":"15.06396867","NORAD_CAT_ID":"47602","APOAPSIS":"548.457","SITE":"AFETR","CENTER_NAME":"EARTH","ELEMENT_SET_NO":"999","CLASSIFICATION_TYPE":"U","PERIOD":"95.592","GP_ID":"184535878","TIME_SYSTEM":"UTC","MEAN_MOTION_DDOT":"0.0000000000000","MEAN_ANOMALY":"306.2135","ARG_OF_PERICENTER":"53.9019","OBJECT_NAME":"STARLINK-2007","REV_AT_EPOCH":"3372","TLE_LINE2":"2 47602  53.0519 174.4629 0001782  53.9019 306.2135 15.06396867 33728","PERIAPSIS":"545.989","OBJECT_TYPE":"PAYLOAD","MEAN_ELEMENT_THEORY":"SGP4","EPHEMERIS_TYPE":"0","INCLINATION":"53.0519","BSTAR":"0.00005891700000","COUNTRY_CODE":"US","DECAY_DATE":null,"RCS_SIZE":"LARGE","RA_OF_ASC_NODE":"174.4629","SEMIMAJOR_AXIS":"6925.358","TLE_LINE1":"1 47602U 21009BG  21254.55733500  .00000596  00000-0  58917-4 0  9997","ECCENTRICITY":"0.00017820","FILE":"3113379","MEAN_MOTION_DOT":"0.00000596","LAUNCH_DATE":"2021-02-04","OBJECT_ID":"2021-009BG"},{"MEAN_ELEMENT_THEORY":"SGP4","OBJECT_TYPE":"PAYLOAD","TLE_LINE2":"2 47603  53.0545 205.2858 0001562  60.4755 299.6390 15.06403707 33271","PERIAPSIS":"546.120","RCS_SIZE":"LARGE","RA_OF_ASC_NODE":"205.2858","BSTAR":"0.00000689000000","EPHEMERIS_TYPE":"0","INCLINATION":"53.0545","DECAY_DATE":null,"COUNTRY_CODE":"US","ECCENTRICITY":"0.00015620","TLE_LINE1":"1 47603U 21009BH  21254.37026927 -.00000179  00000-0  68900-5 0  9998","SEMIMAJOR_AXIS":"6925.337","FILE":"3113181","MEAN_MOTION_DOT":"-0.00000179","LAUNCH_DATE":"2021-02-04","OBJECT_ID":"2021-009BH","NORAD_CAT_ID":"47603","EPOCH":"2021-09-11T08:53:11.264928","MEAN_MOTION":"15.06403707","SITE":"AFETR","APOAPSIS":"548.284","REF_FRAME":"TEME","CENTER_NAME":"EARTH","PERIOD":"95.592","CLASSIFICATION_TYPE":"U","ELEMENT_SET_NO":"999","OBJECT_NAME":"STARLINK-2008","ARG_OF_PERICENTER":"60.4755","REV_AT_EPOCH":"3327","MEAN_ANOMALY":"299.6390","GP_ID":"184508518","MEAN_MOTION_DDOT":"0.0000000000000","TIME_SYSTEM":"UTC"}];
